start=new Date('2023-01-03T00:00:00.000Z').valueOf();
sats=[{"BSTAR":"0.00020128000000","ECCENTRICITY":"0.00030010","MEAN_MOTION_DOT":"0.00002916","TLE_LINE2":"2 52347  53.2190  15.3463 0003001  22.0244 338.0877 15.08833631 40360","RCS_SIZE":"LARGE","TIME_SYSTEM":"UTC","REV_AT_EPOCH":"4036","MEAN_MOTION_DDOT":"0.0000000000000","RA_OF_ASC_NODE":"15.3463","PERIAPSIS":"537.689","COUNTRY_CODE":"US","GP_ID":"222064984","INCLINATION":"53.2190","EPHEMERIS_TYPE":"0","OBJECT_TYPE":"PAYLOAD","LAUNCH_DATE":"2022-04-29","ELEMENT_SET_NO":"999","SITE":"AFETR","DECAY_DATE":null,"NORAD_CAT_ID":"52347","EPOCH":"2023-01-02T17:38:25.833408","MEAN_MOTION":"15.08833631","CLASSIFICATION_TYPE":"U","OBJECT_NAME":"STARLINK-3826","PERIOD":"95.438","MEAN_ANOMALY":"338.0877","OBJECT_ID":"2022-045S","CENTER_NAME":"EARTH","SEMIMAJOR_AXIS":"6917.900","APOAPSIS":"541.841","FILE":"3729873","MEAN_ELEMENT_THEORY":"SGP4","REF_FRAME":"TEME","ARG_OF_PERICENTER":"22.0244","TLE_LINE1":"1 52347U 22045S   23002.73502122  .00002916  00000-0  20128-3 0  9997"},{"REF_FRAME":"TEME","APOAPSIS":"541.146","SEMIMAJOR_AXIS":"6917.868","FILE":"3729583","MEAN_ELEMENT_THEORY":"SGP4","ARG_OF_PERICENTER":"49.2657","TLE_LINE1":"1 52348U 22045T   23002.45166211 -.00000503  00000-0 -13497-4 0  9996","OBJECT_NAME":"STARLINK-3829","PERIOD":"95.437","DECAY_DATE":null,"NORAD_CAT_ID":"52348","MEAN_MOTION":"15.08843996","EPOCH":"2023-01-02T10:50:23.606304","CLASSIFICATION_TYPE":"U","CENTER_NAME":"EARTH","MEAN_ANOMALY":"310.8512","OBJECT_ID":"2022-045T","INCLINATION":"53.2149","EPHEMERIS_TYPE":"0","OBJECT_TYPE":"PAYLOAD","PERIAPSIS":"538.320","COUNTRY_CODE":"US","GP_ID":"222031191","SITE":"AFETR","LAUNCH_DATE":"2022-04-29","ELEMENT_SET_NO":"999","ECCENTRICITY":"0.00020430","MEAN_MOTION_DOT":"-0.00000503","TLE_LINE2":"2 52348  53.2149  16.6204 0002043  49.2657 310.8512 15.08843996 40321","BSTAR":"-0.00001349700000","REV_AT_EPOCH":"4032","MEAN_MOTION_DDOT":"0.0000000000000","RA_OF_ASC_NODE":"16.6204","RCS_SIZE":"LARGE","TIME_SYSTEM":"UTC"},{"DECAY_DATE":null,"NORAD_CAT_ID":"52349","MEAN_MOTION":"15.08839734","EPOCH":"2023-01-02T17:27:49.728096","CLASSIFICATION_TYPE":"U","OBJECT_NAME":"STARLINK-3819","PERIOD":"95.438","MEAN_ANOMALY":"329.0327","OBJECT_ID":"2022-045U","CENTER_NAME":"EARTH","FILE":"3729873","MEAN_ELEMENT_THEORY":"SGP4","SEMIMAJOR_AXIS":"6917.881","APOAPSIS":"541.681","REF_FRAME":"TEME","TLE_LINE1":"1 52349U 22045U   23002.72765889  .00002464  00000-0  17290-3 0  9993","ARG_OF_PERICENTER":"31.0830","BSTAR":"0.00017290000000","MEAN_MOTION_DOT":"0.00002464","ECCENTRICITY":"0.00027970","TLE_LINE2":"2 52349  53.2175  15.3684 0002797  31.0830 329.0327 15.08839734 40362","RCS_SIZE":"LARGE","TIME_SYSTEM":"UTC","REV_AT_EPOCH":"4036","MEAN_MOTION_DDOT":"0.0000000000000","RA_OF_ASC_NODE":"15.3684","COUNTRY_CODE":"US","PERIAPSIS":"537.811","GP_ID":"222065486","INCLINATION":"53.2175","OBJECT_TYPE":"PAYLOAD","EPHEMERIS_TYPE":"0","LAUNCH_DATE":"2022-04-29","ELEMENT_SET_NO":"999","SITE":"AFETR"},{"MEAN_ELEMENT_THEORY":"SGP4","FILE":"3729583","SEMIMAJOR_AXIS":"6917.855","APOAPSIS":"541.728","REF_FRAME":"TEME","TLE_LINE1":"1 52350U 22045V   23002.44798174 -.00002773  00000-0 -15613-3 0  9999","ARG_OF_PERICENTER":"30.7139","DECAY_DATE":null,"NORAD_CAT_ID":"52350","MEAN_MOTION":"15.08848410","CLASSIFICATION_TYPE":"U","EPOCH":"2023-01-02T10:45:05.622336","OBJECT_NAME":"STARLINK-3754","PERIOD":"95.437","OBJECT_ID":"2022-045V","MEAN_ANOMALY":"329.4022","CENTER_NAME":"EARTH","COUNTRY_CODE":"US","PERIAPSIS":"537.711","GP_ID":"222032692","INCLINATION":"53.2152","OBJECT_TYPE":"PAYLOAD","EPHEMERIS_TYPE":"0","LAUNCH_DATE":"2022-04-29","ELEMENT_SET_NO":"999","SITE":"AFETR","BSTAR":"-0.00015613000000","MEAN_MOTION_DOT":"-0.00002773","ECCENTRICITY":"0.00029030","TLE_LINE2":"2 52350  53.2152  16.6278 0002903  30.7139 329.4022 15.08848410 40322","RCS_SIZE":"LARGE","TIME_SYSTEM":"UTC","MEAN_MOTION_DDOT":"0.0000000000000","REV_AT_EPOCH":"4032","RA_OF_ASC_NODE":"16.6278"},{"TIME_SYSTEM":"UTC","RCS_SIZE":"LARGE","RA_OF_ASC_NODE":"15.1946","MEAN_MOTION_DDOT":"0.0000000000000","REV_AT_EPOCH":"4037","BSTAR":"0.00107410000000","TLE_LINE2":"2 52352  53.2159  15.1946 0003151  25.7676 334.3473 15.08848643 40371","MEAN_MOTION_DOT":"0.00016852","ECCENTRICITY":"0.00031510","ELEMENT_SET_NO":"999","LAUNCH_DATE":"2022-04-29","SITE":"AFETR","GP_ID":"222064485","COUNTRY_CODE":"US","PERIAPSIS":"537.539","OBJECT_TYPE":"PAYLOAD","EPHEMERIS_TYPE":"0","INCLINATION":"53.2159","MEAN_ANOMALY":"334.3473","OBJECT_ID":"2022-045X","CENTER_NAME":"EARTH","CLASSIFICATION_TYPE":"U","MEAN_MOTION":"15.08848643","EPOCH":"2023-01-02T18:26:07.830816","NORAD_CAT_ID":"52352","DECAY_DATE":null,"PERIOD":"95.437","OBJECT_NAME":"STARLINK-3838","TLE_LINE1":"1 52352U 22045X   23002.76814619  .00016852  00000-0  10741-2 0  9996","ARG_OF_PERICENTER":"25.7676","MEAN_ELEMENT_THEORY":"SGP4","FILE":"3729873","SEMIMAJOR_AXIS":"6917.854","APOAPSIS":"541.899","REF_FRAME":"TEME"},{"ARG_OF_PERICENTER":"25.6721","TLE_LINE1":"1 52353U 22045Y   23002.51054703  .00007721  00000-0  50270-3 0  9997","REF_FRAME":"TEME","APOAPSIS":"541.660","SEMIMAJOR_AXIS":"6917.889","MEAN_ELEMENT_THEORY":"SGP4","FILE":"3729583","CENTER_NAME":"EARTH","OBJECT_ID":"2022-045Y","MEAN_ANOMALY":"334.4407","PERIOD":"95.438","OBJECT_NAME":"STARLINK-3807","MEAN_MOTION":"15.08837141","EPOCH":"2023-01-02T12:15:11.263392","CLASSIFICATION_TYPE":"U","DECAY_DATE":null,"NORAD_CAT_ID":"52353","SITE":"AFETR","ELEMENT_SET_NO":"999","LAUNCH_DATE":"2022-04-29","EPHEMERIS_TYPE":"0","OBJECT_TYPE":"PAYLOAD","INCLINATION":"53.2166","GP_ID":"222031691","PERIAPSIS":"537.848","COUNTRY_CODE":"US","RA_OF_ASC_NODE":"16.3520","REV_AT_EPOCH":"4033","MEAN_MOTION_DDOT":"0.0000000000000","TIME_SYSTEM":"UTC","RCS_SIZE":"LARGE","TLE_LINE2":"2 52353  53.2166  16.3520 0002755  25.6721 334.4407 15.08837141 40335","ECCENTRICITY":"0.00027550","MEAN_MOTION_DOT":"0.00007721","BSTAR":"0.00050270000000"},{"EPOCH":"2023-01-02T18:10:13.068480","CLASSIFICATION_TYPE":"U","MEAN_MOTION":"15.08840255","DECAY_DATE":null,"NORAD_CAT_ID":"52354","PERIOD":"95.438","OBJECT_NAME":"STARLINK-3876","OBJECT_ID":"2022-045Z","MEAN_ANOMALY":"332.8571","CENTER_NAME":"EARTH","SEMIMAJOR_AXIS":"6917.880","APOAPSIS":"541.876","MEAN_ELEMENT_THEORY":"SGP4","FILE":"3729873","REF_FRAME":"TEME","ARG_OF_PERICENTER":"27.2583","TLE_LINE1":"1 52354U 22045Z   23002.75709570 -.00000641  00000-0 -22122-4 0  9995","BSTAR":"-0.00002212200000","TLE_LINE2":"2 52354  53.2192  15.2536 0003081  27.2583 332.8571 15.08840255 40375","ECCENTRICITY":"0.00030810","MEAN_MOTION_DOT":"-0.00000641","TIME_SYSTEM":"UTC","RCS_SIZE":"LARGE","RA_OF_ASC_NODE":"15.2536","MEAN_MOTION_DDOT":"0.0000000000000","REV_AT_EPOCH":"4037","GP_ID":"222065985","PERIAPSIS":"537.613","COUNTRY_CODE":"US","EPHEMERIS_TYPE":"0","OBJECT_TYPE":"PAYLOAD","INCLINATION":"53.2192","ELEMENT_SET_NO":"999","LAUNCH_DATE":"2022-04-29","SITE":"AFETR"},{"TLE_LINE2":"2 52355  53.2166  16.6649 0001515  51.1289 308.9838 15.08849912 40320","ECCENTRICITY":"0.00015150","MEAN_MOTION_DOT":"-0.00001713","BSTAR":"-0.00008954000000","RA_OF_ASC_NODE":"16.6649","REV_AT_EPOCH":"4032","MEAN_MOTION_DDOT":"0.0000000000000","TIME_SYSTEM":"UTC","RCS_SIZE":"LARGE","EPHEMERIS_TYPE":"0","OBJECT_TYPE":"PAYLOAD","INCLINATION":"53.2166","GP_ID":"222032194","PERIAPSIS":"538.667","COUNTRY_CODE":"US","SITE":"AFETR","ELEMENT_SET_NO":"999","LAUNCH_DATE":"2022-04-29","PERIOD":"95.437","OBJECT_NAME":"STARLINK-3877","CLASSIFICATION_TYPE":"U","MEAN_MOTION":"15.08849912","EPOCH":"2023-01-02T10:34:28.377408","NORAD_CAT_ID":"52355","DECAY_DATE":null,"CENTER_NAME":"EARTH","MEAN_ANOMALY":"308.9838","OBJECT_ID":"2022-045AA","REF_FRAME":"TEME","APOAPSIS":"540.763","SEMIMAJOR_AXIS":"6917.850","FILE":"3729583","MEAN_ELEMENT_THEORY":"SGP4","ARG_OF_PERICENTER":"51.1289","TLE_LINE1":"1 52355U 22045AA  23002.44060622 -.00001713  00000-0 -89540-4 0  9998"},{"LAUNCH_DATE":"2022-04-29","ELEMENT_SET_NO":"999","SITE":"AFETR","COUNTRY_CODE":"US","PERIAPSIS":"538.036","GP_ID":"222064985","INCLINATION":"53.2192","OBJECT_TYPE":"PAYLOAD","EPHEMERIS_TYPE":"0","RCS_SIZE":"LARGE","TIME_SYSTEM":"UTC","MEAN_MOTION_DDOT":"0.0000000000000","REV_AT_EPOCH":"4037","RA_OF_ASC_NODE":"15.2480","BSTAR":"0.00007323300000","MEAN_MOTION_DOT":"0.00000877","ECCENTRICITY":"0.00024660","TLE_LINE2":"2 52356  53.2192  15.2480 0002466  33.5240 326.5908 15.08841016 40371","TLE_LINE1":"1 52356U 22045AB  23002.75804956  .00000877  00000-0  73233-4 0  9999","ARG_OF_PERICENTER":"33.5240","FILE":"3729873","MEAN_ELEMENT_THEORY":"SGP4","SEMIMAJOR_AXIS":"6917.877","APOAPSIS":"541.448","REF_FRAME":"TEME","OBJECT_ID":"2022-045AB","MEAN_ANOMALY":"326.5908","CENTER_NAME":"EARTH","NORAD_CAT_ID":"52356","DECAY_DATE":null,"EPOCH":"2023-01-02T18:11:35.481984","MEAN_MOTION":"15.08841016","CLASSIFICATION_TYPE":"U","OBJECT_NAME":"STARLINK-3801","PERIOD":"95.437"},{"BSTAR":"-0.00007245400000","ECCENTRICITY":"0.00033340","MEAN_MOTION_DOT":"-0.00001442","TLE_LINE2":"2 52357  53.2186  15.2198 0003334  25.6330 334.4827 15.08852700 40378","RCS_SIZE":"LARGE","TIME_SYSTEM":"UTC","REV_AT_EPOCH":"4037","MEAN_MOTION_DDOT":"0.0000000000000","RA_OF_ASC_NODE":"15.2198","PERIAPSIS":"537.400","COUNTRY_CODE":"US","GP_ID":"222065235","INCLINATION":"53.2186","EPHEMERIS_TYPE":"0","OBJECT_TYPE":"PAYLOAD","LAUNCH_DATE":"2022-04-29","ELEMENT_SET_NO":"999","SITE":"AFETR","NORAD_CAT_ID":"52357","DECAY_DATE":null,"CLASSIFICATION_TYPE":"U","EPOCH":"2023-01-02T18:20:48.986304","MEAN_MOTION":"15.08852700","OBJECT_NAME":"STARLINK-3821","PERIOD":"95.437","OBJECT_ID":"2022-045AC","MEAN_ANOMALY":"334.4827","CENTER_NAME":"EARTH","APOAPSIS":"542.013","SEMIMAJOR_AXIS":"6917.842","FILE":"3729873","MEAN_ELEMENT_THEORY":"SGP4","REF_FRAME":"TEME","ARG_OF_PERICENTER":"25.6330","TLE_LINE1":"1 52357U 22045AC  23002.76445586 -.00001442  00000-0 -72454-4 0  9996"}];
